{"type": "FeatureCollection", "features": [ {"type": "Feature", "properties": {"norad_id": 35480, "name": "IRIDIUM 33 DEB", "group": "iridium-33-debris", "lat": -79.18492344606543, "lon": 7.658566489710233, "alt_km": 744.5582186025931, "timestamp": "2025-12-07T14:37:05.589152+00:00", "meta": {"OBJECT_NAME": "IRIDIUM 33 DEB", "OBJECT_ID": "1997-051QA", "EPOCH": "2025-12-01T21:29:27.496896", "MEAN_MOTION": 14.49686619, "ECCENTRICITY": 0.00155495, "INCLINATION": 86.3575, "RA_OF_ASC_NODE": 29.6125, "ARG_OF_PERICENTER": 136.7189, "MEAN_ANOMALY": 223.524, "EPHEMERIS_TYPE": 0, "CLASSIFICATION_TYPE": "U", "NORAD_CAT_ID": 35480, "ELEMENT_SET_NO": 999, "REV_AT_EPOCH": 86874, "BSTAR": 0.000651702, "MEAN_MOTION_DOT": 2.53e-05, "MEAN_MOTION_DDOT": 0}, "tle": {"line1": "1 35480U 97051QA  25335.89545714  .00002530  00000+0  65170-3 0  9994", "line2": "2 35480  86.3575  29.6125 0015549 136.7189 223.5240 14.49686619868745"}}, "geometry": {"type": "Point", "coordinates": [7.658566489710233, -79.18492344606543]}}, {"type": "Feature", "properties": {"norad_id": 35484, "name": "IRIDIUM 33 DEB", "group": "iridium-33-debris", "lat": -84.53402169772026, "lon": -143.1882516243579, "alt_km": 589.2132233689144, "timestamp": "2025-12-07T14:37:05.589162+00:00", "meta": {"OBJECT_NAME": "IRIDIUM 33 DEB", "OBJECT_ID": "1997-051QE", "EPOCH": "2025-12-01T19:32:14.692416", "MEAN_MOTION": 14.97587734, "ECCENTRICITY": 0.00218288, "INCLINATION": 86.3628, "RA_OF_ASC_NODE": 357.8533, "ARG_OF_PERICENTER": 162.6444, "MEAN_ANOMALY": 197.5538, "EPHEMERIS_TYPE": 0, "CLASSIFICATION_TYPE": "U", "NORAD_CAT_ID": 35484, "ELEMENT_SET_NO": 999, "REV_AT_EPOCH": 61852, "BSTAR": 0.0025030806, "MEAN_MOTION_DOT": 0.00029486, "MEAN_MOTION_DDOT": 0}, "tle": {"line1": "1 35484U 97051QE  25335.81405894  .00029486  00000+0  25031-2 0  9994", "line2": "2 35484  86.3628 357.8533 0021828 162.6444 197.5538 14.97587734618526"}}, "geometry": {"type": "Point", "coordinates": [-143.1882516243579, -84.53402169772026]}}, {"type": "Feature", "properties": {"norad_id": 35488, "name": "IRIDIUM 33 DEB", "group": "iridium-33-debris", "lat": -57.986133518523076, "lon": -62.655989958047165, "alt_km": 637.0494297902042, "timestamp": "2025-12-07T14:37:05.589173+00:00", "meta": {"OBJECT_NAME": "IRIDIUM 33 DEB", "OBJECT_ID": "1997-051QJ", "EPOCH": "2025-12-06T08:06:29.076192", "MEAN_MOTION": 14.82814099, "ECCENTRICITY": 0.00304933, "INCLINATION": 86.3261, "RA_OF_ASC_NODE": 303.8283, "ARG_OF_PERICENTER": 63.1444, "MEAN_ANOMALY": 297.2891, "EPHEMERIS_TYPE": 0, "CLASSIFICATION_TYPE": "U", "NORAD_CAT_ID": 35488, "ELEMENT_SET_NO": 999, "REV_AT_EPOCH": 88171, "BSTAR": 0.0025956954, "MEAN_MOTION_DOT": 0.00021231, "MEAN_MOTION_DDOT": 0}, "tle": {"line1": "1 35488U 97051QJ  25340.33783653  .00021231  00000+0  25957-2 0  9990", "line2": "2 35488  86.3261 303.8283 0030493  63.1444 297.2891 14.82814099881713"}}, "geometry": {"type": "Point", "coordinates": [-62.655989958047165, -57.986133518523076]}}, {"type": "Feature", "properties": {"norad_id": 35616, "name": "IRIDIUM 33 DEB", "group": "iridium-33-debris", "lat": 55.48737897231691, "lon": 162.78602182627753, "alt_km": 615.5996179693411, "timestamp": "2025-12-07T14:37:05.589183+00:00", "meta": {"OBJECT_NAME": "IRIDIUM 33 DEB", "OBJECT_ID": "1997-051QN", "EPOCH": "2025-12-06T07:15:38.847744", "MEAN_MOTION": 14.81564916, "ECCENTRICITY": 0.00091957, "INCLINATION": 86.3542, "RA_OF_ASC_NODE": 348.7026, "ARG_OF_PERICENTER": 186.8662, "MEAN_ANOMALY": 173.2436, "EPHEMERIS_TYPE": 0, "CLASSIFICATION_TYPE": "U", "NORAD_CAT_ID": 35616, "ELEMENT_SET_NO": 999, "REV_AT_EPOCH": 87479, "BSTAR": 0.0030438731, "MEAN_MOTION_DOT": 0.00023991, "MEAN_MOTION_DDOT": 0}, "tle": {"line1": "1 35616U 97051QN  25340.30253296  .00023991  00000+0  30439-2 0  9991", "line2": "2 35616  86.3542 348.7026 0009195 186.8662 173.2436 14.81564916874798"}}, "geometry": {"type": "Point", "coordinates": [162.78602182627753, 55.48737897231691]}}, {"type": "Feature", "properties": {"norad_id": 35618, "name": "IRIDIUM 33 DEB", "group": "iridium-33-debris", "lat": 72.64217537773138, "lon": 7.559172281073913, "alt_km": 693.6309588743588, "timestamp": "2025-12-07T14:37:05.589193+00:00", "meta": {"OBJECT_NAME": "IRIDIUM 33 DEB", "OBJECT_ID": "1997-051QQ", "EPOCH": "2025-12-05T07:42:53.148672", "MEAN_MOTION": 14.52258119, "ECCENTRICITY": 0.00302089, "INCLINATION": 86.3407, "RA_OF_ASC_NODE": 356.7447, "ARG_OF_PERICENTER": 46.3254, "MEAN_ANOMALY": 314.0448, "EPHEMERIS_TYPE": 0, "CLASSIFICATION_TYPE": "U", "NORAD_CAT_ID": 35618, "ELEMENT_SET_NO": 999, "REV_AT_EPOCH": 65286, "BSTAR": 0.00091388234, "MEAN_MOTION_DOT": 3.753e-05, "MEAN_MOTION_DDOT": 0}, "tle": {"line1": "1 35618U 97051QQ  25339.32144848  .00003753  00000+0  91388-3 0  9990", "line2": "2 35618  86.3407 356.7447 0030208  46.3254 314.0448 14.52258119652865"}}, "geometry": {"type": "Point", "coordinates": [7.559172281073913, 72.64217537773138]}}, {"type": "Feature", "properties": {"norad_id": 35620, "name": "IRIDIUM 33 DEB", "group": "iridium-33-debris", "lat": -38.36554439807612, "lon": -143.24930455337102, "alt_km": 700.0777985426175, "timestamp": "2025-12-07T14:37:05.589204+00:00", "meta": {"OBJECT_NAME": "IRIDIUM 33 DEB", "OBJECT_ID": "1997-051QS", "EPOCH": "2025-12-06T22:05:29.141088", "MEAN_MOTION": 14.37743755, "ECCENTRICITY": 0.01434797, "INCLINATION": 86.3877, "RA_OF_ASC_NODE": 219.9074, "ARG_OF_PERICENTER": 278.1615, "MEAN_ANOMALY": 80.3329, "EPHEMERIS_TYPE": 0, "CLASSIFICATION_TYPE": "U", "NORAD_CAT_ID": 35620, "ELEMENT_SET_NO": 999, "REV_AT_EPOCH": 59882, "BSTAR": 0.0084190173, "MEAN_MOTION_DOT": 0.00028635, "MEAN_MOTION_DDOT": 0}, "tle": {"line1": "1 35620U 97051QS  25340.92047617  .00028635  00000+0  84190-2 0  9995", "line2": "2 35620  86.3877 219.9074 0143479 278.1615  80.3329 14.37743755598820"}}, "geometry": {"type": "Point", "coordinates": [-143.24930455337102, -38.36554439807612]}}, {"type": "Feature", "properties": {"norad_id": 35622, "name": "IRIDIUM 33 DEB", "group": "iridium-33-debris", "lat": -82.64293161220782, "lon": 117.07903675194562, "alt_km": 563.581465090162, "timestamp": "2025-12-07T14:37:05.589214+00:00", "meta": {"OBJECT_NAME": "IRIDIUM 33 DEB", "OBJECT_ID": "1997-051QU", "EPOCH": "2025-12-06T06:10:47.790912", "MEAN_MOTION": 15.03498314, "ECCENTRICITY": 0.00106929, "INCLINATION": 86.2036, "RA_OF_ASC_NODE": 266.7937, "ARG_OF_PERICENTER": 6.4287, "MEAN_ANOMALY": 145.8832, "EPHEMERIS_TYPE": 0, "CLASSIFICATION_TYPE": "U", "NORAD_CAT_ID": 35622, "ELEMENT_SET_NO": 999, "REV_AT_EPOCH": 87262, "BSTAR": 0.0085488468, "MEAN_MOTION_DOT": 0.00118453, "MEAN_MOTION_DDOT": 0}, "tle": {"line1": "1 35622U 97051QU  25340.25749758  .00118453  00000+0  85488-2 0  9997", "line2": "2 35622  86.2036 266.7937 0010692   6.4287 145.8832 15.03498314872624"}}, "geometry": {"type": "Point", "coordinates": [117.07903675194562, -82.64293161220782]}}, {"type": "Feature", "properties": {"norad_id": 35628, "name": "IRIDIUM 33 DEB", "group": "iridium-33-debris", "lat": 49.19257384739651, "lon": 15.595511667612422, "alt_km": 659.3123218816181, "timestamp": "2025-12-07T14:37:05.589225+00:00", "meta": {"OBJECT_NAME": "IRIDIUM 33 DEB", "OBJECT_ID": "1997-051RA", "EPOCH": "2025-12-04T09:28:36.488064", "MEAN_MOTION": 14.67394134, "ECCENTRICITY": 0.001144, "INCLINATION": 86.3576, "RA_OF_ASC_NODE": 12.797, "ARG_OF_PERICENTER": 12.0998, "MEAN_ANOMALY": 348.0488, "EPHEMERIS_TYPE": 0, "CLASSIFICATION_TYPE": "U", "NORAD_CAT_ID": 35628, "ELEMENT_SET_NO": 999, "REV_AT_EPOCH": 86324, "BSTAR": 0.0032445, "MEAN_MOTION_DOT": 0.00018408, "MEAN_MOTION_DDOT": 0}, "tle": {"line1": "1 35628U 97051RA  25338.39486676  .00018408  00000+0  32445-2 0  9996", "line2": "2 35628  86.3576  12.7970 0011440  12.0998 348.0488 14.67394134863246"}}, "geometry": {"type": "Point", "coordinates": [15.595511667612422, 49.19257384739651]}}, {"type": "Feature", "properties": {"norad_id": 35631, "name": "IRIDIUM 33 DEB", "group": "iridium-33-debris", "lat": -41.90672922912578, "lon": 19.918563832201457, "alt_km": 754.3312729194759, "timestamp": "2025-12-07T14:37:05.589235+00:00", "meta": {"OBJECT_NAME": "IRIDIUM 33 DEB", "OBJECT_ID": "1997-051RD", "EPOCH": "2025-12-06T21:23:47.071392", "MEAN_MOTION": 14.47286545, "ECCENTRICITY": 0.00185223, "INCLINATION": 86.3689, "RA_OF_ASC_NODE": 23.4943, "ARG_OF_PERICENTER": 135.5581, "MEAN_ANOMALY": 46.1978, "EPHEMERIS_TYPE": 0, "CLASSIFICATION_TYPE": "U", "NORAD_CAT_ID": 35631, "ELEMENT_SET_NO": 999, "REV_AT_EPOCH": 87112, "BSTAR": 0.00062002851, "MEAN_MOTION_DOT": 2.292e-05, "MEAN_MOTION_DDOT": 0}, "tle": {"line1": "1 35631U 97051RD  25340.89151703  .00002292  00000+0  62003-3 0  9996", "line2": "2 35631  86.3689  23.4943 0018522 135.5581  46.1978 14.47286545871121"}}, "geometry": {"type": "Point", "coordinates": [19.918563832201457, -41.90672922912578]}}, {"type": "Feature", "properties": {"norad_id": 35680, "name": "IRIDIUM 33 DEB", "group": "iridium-33-debris", "lat": 57.99381833929883, "lon": 30.058387572681454, "alt_km": 875.7071930721759, "timestamp": "2025-12-07T14:37:05.589245+00:00", "meta": {"OBJECT_NAME": "IRIDIUM 33 DEB", "OBJECT_ID": "1997-051RJ", "EPOCH": "2025-12-06T09:39:51.736896", "MEAN_MOTION": 14.20748737, "ECCENTRICITY": 0.01506079, "INCLINATION": 86.1022, "RA_OF_ASC_NODE": 24.3298, "ARG_OF_PERICENTER": 298.7228, "MEAN_ANOMALY": 71.4349, "EPHEMERIS_TYPE": 0, "CLASSIFICATION_TYPE": "U", "NORAD_CAT_ID": 35680, "ELEMENT_SET_NO": 999, "REV_AT_EPOCH": 60611, "BSTAR": 0.0059192818, "MEAN_MOTION_DOT": 0.00014348, "MEAN_MOTION_DDOT": 0}, "tle": {"line1": "1 35680U 97051RJ  25340.40268214  .00014348  00000+0  59193-2 0  9993", "line2": "2 35680  86.1022  24.3298 0150607 298.7228  71.4349 14.20748737606113"}}, "geometry": {"type": "Point", "coordinates": [30.058387572681454, 57.99381833929883]}}]}